start=new Date('2022-04-15T00:00:00.000Z').valueOf();
sats=[{"EPOCH":"2022-04-14T22:21:51.011424","OBJECT_TYPE":"PAYLOAD","CLASSIFICATION_TYPE":"U","MEAN_ELEMENT_THEORY":"SGP4","APOAPSIS":"548.714","SEMIMAJOR_AXIS":"6925.359","ELEMENT_SET_NO":"999","ECCENTRICITY":"0.00021520","EPHEMERIS_TYPE":"0","TIME_SYSTEM":"UTC","PERIOD":"95.592","PERIAPSIS":"545.734","DECAY_DATE":null,"COUNTRY_CODE":"US","BSTAR":"-0.00017840000000","REV_AT_EPOCH":"10412","TLE_LINE1":"1 45692U 20035AM  22104.93184041 -.00002938  00000-0 -17840-3 0  9992","REF_FRAME":"TEME","MEAN_MOTION_DOT":"-0.00002938","RCS_SIZE":"LARGE","GP_ID":"201254137","CENTER_NAME":"EARTH","LAUNCH_DATE":"2020-06-04","ARG_OF_PERICENTER":"63.1679","TLE_LINE2":"2 45692  53.0533 332.6186 0002152  63.1679 296.9530 15.06396617104124","SITE":"AFETR","FILE":"3401977","OBJECT_NAME":"STARLINK-1416","RA_OF_ASC_NODE":"332.6186","MEAN_MOTION":"15.06396617","OBJECT_ID":"2020-035AM","MEAN_ANOMALY":"296.9530","MEAN_MOTION_DDOT":"0.0000000000000","INCLINATION":"53.0533","NORAD_CAT_ID":"45692"},{"MEAN_MOTION_DDOT":"0.0000000000000","INCLINATION":"53.0557","NORAD_CAT_ID":"45693","MEAN_ANOMALY":"285.8417","OBJECT_ID":"2020-035AN","RA_OF_ASC_NODE":"334.0169","OBJECT_NAME":"STARLINK-1417","MEAN_MOTION":"15.06395413","ARG_OF_PERICENTER":"74.2729","TLE_LINE2":"2 45693  53.0557 334.0169 0001425  74.2729 285.8417 15.06395413104077","SITE":"AFETR","FILE":"3401977","LAUNCH_DATE":"2020-06-04","RCS_SIZE":"LARGE","GP_ID":"201254387","CENTER_NAME":"EARTH","REF_FRAME":"TEME","MEAN_MOTION_DOT":"0.00003187","REV_AT_EPOCH":"10407","COUNTRY_CODE":"US","BSTAR":"0.00023278000000","TLE_LINE1":"1 45693U 20035AN  22104.61854109  .00003187  00000-0  23278-3 0  9994","PERIAPSIS":"546.241","DECAY_DATE":null,"EPHEMERIS_TYPE":"0","TIME_SYSTEM":"UTC","PERIOD":"95.592","ELEMENT_SET_NO":"999","ECCENTRICITY":"0.00014250","MEAN_ELEMENT_THEORY":"SGP4","APOAPSIS":"548.214","SEMIMAJOR_AXIS":"6925.363","CLASSIFICATION_TYPE":"U","EPOCH":"2022-04-14T14:50:41.950176","OBJECT_TYPE":"PAYLOAD"},{"OBJECT_ID":"2020-035AP","OBJECT_NAME":"STARLINK-1419","RA_OF_ASC_NODE":"332.7775","MEAN_MOTION":"15.06394551","NORAD_CAT_ID":"45694","INCLINATION":"53.0554","MEAN_MOTION_DDOT":"0.0000000000000","MEAN_ANOMALY":"277.0275","CENTER_NAME":"EARTH","GP_ID":"201230939","RCS_SIZE":"LARGE","MEAN_MOTION_DOT":"0.00001320","REF_FRAME":"TEME","FILE":"3401720","SITE":"AFETR","TLE_LINE2":"2 45694  53.0554 332.7775 0001658  83.0903 277.0275 15.06394551103721","ARG_OF_PERICENTER":"83.0903","LAUNCH_DATE":"2020-06-04","PERIOD":"95.592","TIME_SYSTEM":"UTC","EPHEMERIS_TYPE":"0","ELEMENT_SET_NO":"999","ECCENTRICITY":"0.00016580","TLE_LINE1":"1 45694U 20035AP  22104.89130249  .00001320  00000-0  10750-3 0  9995","BSTAR":"0.00010750000000","COUNTRY_CODE":"US","REV_AT_EPOCH":"10372","DECAY_DATE":null,"PERIAPSIS":"546.082","OBJECT_TYPE":"PAYLOAD","EPOCH":"2022-04-14T21:23:28.535136","SEMIMAJOR_AXIS":"6925.365","APOAPSIS":"548.378","MEAN_ELEMENT_THEORY":"SGP4","CLASSIFICATION_TYPE":"U"},{"APOAPSIS":"548.393","MEAN_ELEMENT_THEORY":"SGP4","SEMIMAJOR_AXIS":"6925.359","CLASSIFICATION_TYPE":"U","EPOCH":"2022-04-14T13:17:49.032672","OBJECT_TYPE":"PAYLOAD","BSTAR":"0.00023504000000","COUNTRY_CODE":"US","REV_AT_EPOCH":"10394","TLE_LINE1":"1 45695U 20035AQ  22104.55403973  .00003221  00000-0  23504-3 0  9999","PERIAPSIS":"546.055","DECAY_DATE":null,"EPHEMERIS_TYPE":"0","TIME_SYSTEM":"UTC","PERIOD":"95.592","ECCENTRICITY":"0.00016880","ELEMENT_SET_NO":"999","ARG_OF_PERICENTER":"58.6354","TLE_LINE2":"2 45695  53.0545 314.2898 0001688  58.6354 301.4800 15.06396715103948","SITE":"AFETR","FILE":"3401720","LAUNCH_DATE":"2020-06-04","RCS_SIZE":"LARGE","GP_ID":"201230937","CENTER_NAME":"EARTH","REF_FRAME":"TEME","MEAN_MOTION_DOT":"0.00003221","MEAN_MOTION_DDOT":"0.0000000000000","INCLINATION":"53.0545","NORAD_CAT_ID":"45695","MEAN_ANOMALY":"301.4800","OBJECT_ID":"2020-035AQ","OBJECT_NAME":"STARLINK-1420","MEAN_MOTION":"15.06396715","RA_OF_ASC_NODE":"314.2898"},{"SITE":"AFETR","TLE_LINE2":"2 45696  53.0545 332.7649 0002028  49.6724 310.4442 15.06417432104110","ARG_OF_PERICENTER":"49.6724","FILE":"3401977","LAUNCH_DATE":"2020-06-04","RCS_SIZE":"LARGE","CENTER_NAME":"EARTH","GP_ID":"201253643","REF_FRAME":"TEME","MEAN_MOTION_DOT":"0.00005895","MEAN_MOTION_DDOT":"0.0000000000000","NORAD_CAT_ID":"45696","INCLINATION":"53.0545","MEAN_ANOMALY":"310.4442","OBJECT_ID":"2020-035AR","OBJECT_NAME":"STARLINK-1422","MEAN_MOTION":"15.06417432","RA_OF_ASC_NODE":"332.7649","MEAN_ELEMENT_THEORY":"SGP4","APOAPSIS":"548.565","SEMIMAJOR_AXIS":"6925.295","CLASSIFICATION_TYPE":"U","OBJECT_TYPE":"PAYLOAD","EPOCH":"2022-04-14T21:28:46.881984","TLE_LINE1":"1 45696U 20035AR  22104.89498706  .00005895  00000-0  41413-3 0  9993","BSTAR":"0.00041413000000","COUNTRY_CODE":"US","REV_AT_EPOCH":"10411","PERIAPSIS":"545.756","DECAY_DATE":null,"EPHEMERIS_TYPE":"0","PERIOD":"95.591","TIME_SYSTEM":"UTC","ECCENTRICITY":"0.00020280","ELEMENT_SET_NO":"999"},{"RCS_SIZE":"LARGE","GP_ID":"201253893","CENTER_NAME":"EARTH","REF_FRAME":"TEME","MEAN_MOTION_DOT":"0.00006781","ARG_OF_PERICENTER":"70.3668","TLE_LINE2":"2 45697  53.0548 312.8843 0001518  70.3668 289.7484 15.06402422104409","SITE":"AFETR","FILE":"3401977","LAUNCH_DATE":"2020-06-04","OBJECT_ID":"2020-035AS","MEAN_MOTION":"15.06402422","RA_OF_ASC_NODE":"312.8843","OBJECT_NAME":"STARLINK-1351","MEAN_MOTION_DDOT":"0.0000000000000","INCLINATION":"53.0548","NORAD_CAT_ID":"45697","MEAN_ANOMALY":"289.7484","EPOCH":"2022-04-14T20:54:17.973504","OBJECT_TYPE":"PAYLOAD","MEAN_ELEMENT_THEORY":"SGP4","APOAPSIS":"548.257","SEMIMAJOR_AXIS":"6925.341","CLASSIFICATION_TYPE":"U","EPHEMERIS_TYPE":"0","TIME_SYSTEM":"UTC","PERIOD":"95.592","ECCENTRICITY":"0.00015180","ELEMENT_SET_NO":"999","COUNTRY_CODE":"US","REV_AT_EPOCH":"10440","BSTAR":"0.00047363000000","TLE_LINE1":"1 45697U 20035AS  22104.87104136  .00006781  00000-0  47363-3 0  9998","PERIAPSIS":"546.155","DECAY_DATE":null},{"OBJECT_TYPE":"PAYLOAD","EPOCH":"2022-04-14T20:38:20.894784","SEMIMAJOR_AXIS":"6925.351","MEAN_ELEMENT_THEORY":"SGP4","APOAPSIS":"548.343","CLASSIFICATION_TYPE":"U","PERIOD":"95.592","TIME_SYSTEM":"UTC","EPHEMERIS_TYPE":"0","ELEMENT_SET_NO":"999","ECCENTRICITY":"0.00016280","TLE_LINE1":"1 45698U 20035AT  22104.85996406  .00000263  00000-0  36553-4 0  9995","COUNTRY_CODE":"US","REV_AT_EPOCH":"10440","BSTAR":"0.00003655300000","DECAY_DATE":null,"PERIAPSIS":"546.088","GP_ID":"201255139","CENTER_NAME":"EARTH","RCS_SIZE":"LARGE","MEAN_MOTION_DOT":"0.00000263","REF_FRAME":"TEME","FILE":"3401977","SITE":"AFETR","ARG_OF_PERICENTER":"71.0677","TLE_LINE2":"2 45698  53.0542 312.9349 0001628  71.0677 289.0488 15.06399260104408","LAUNCH_DATE":"2020-06-04","OBJECT_ID":"2020-035AT","MEAN_MOTION":"15.06399260","OBJECT_NAME":"STARLINK-1370","RA_OF_ASC_NODE":"312.9349","NORAD_CAT_ID":"45698","INCLINATION":"53.0542","MEAN_MOTION_DDOT":"0.0000000000000","MEAN_ANOMALY":"289.0488"},{"DECAY_DATE":null,"PERIAPSIS":"546.160","REV_AT_EPOCH":"10403","COUNTRY_CODE":"US","BSTAR":"0.00001408300000","TLE_LINE1":"1 45699U 20035AU  22104.84890706 -.00000072  00000-0  14083-4 0  9994","ELEMENT_SET_NO":"999","ECCENTRICITY":"0.00015260","TIME_SYSTEM":"UTC","PERIOD":"95.592","EPHEMERIS_TYPE":"0","CLASSIFICATION_TYPE":"U","SEMIMAJOR_AXIS":"6925.352","APOAPSIS":"548.274","MEAN_ELEMENT_THEORY":"SGP4","EPOCH":"2022-04-14T20:22:25.569984","OBJECT_TYPE":"PAYLOAD","MEAN_ANOMALY":"294.8123","INCLINATION":"53.0552","NORAD_CAT_ID":"45699","MEAN_MOTION_DDOT":"0.0000000000000","MEAN_MOTION":"15.06398961","OBJECT_NAME":"STARLINK-1398","RA_OF_ASC_NODE":"312.9851","OBJECT_ID":"2020-035AU","LAUNCH_DATE":"2020-06-04","FILE":"3401709","TLE_LINE2":"2 45699  53.0552 312.9851 0001526  65.3025 294.8123 15.06398961104034","ARG_OF_PERICENTER":"65.3025","SITE":"AFETR","MEAN_MOTION_DOT":"-0.00000072","REF_FRAME":"TEME","CENTER_NAME":"EARTH","GP_ID":"201230275","RCS_SIZE":"LARGE"},{"PERIOD":"95.591","TIME_SYSTEM":"UTC","EPHEMERIS_TYPE":"0","ELEMENT_SET_NO":"999","ECCENTRICITY":"0.00014730","TLE_LINE1":"1 45700U 20035AV  22104.84522053  .00005099  00000-0  36079-3 0  9995","REV_AT_EPOCH":"10398","COUNTRY_CODE":"US","BSTAR":"0.00036079000000","DECAY_DATE":null,"PERIAPSIS":"546.145","OBJECT_TYPE":"PAYLOAD","EPOCH":"2022-04-14T20:17:07.053792","SEMIMAJOR_AXIS":"6925.300","APOAPSIS":"548.185","MEAN_ELEMENT_THEORY":"SGP4","CLASSIFICATION_TYPE":"U","OBJECT_ID":"2020-035AV","OBJECT_NAME":"STARLINK-1400","MEAN_MOTION":"15.06415809","RA_OF_ASC_NODE":"312.9954","NORAD_CAT_ID":"45700","INCLINATION":"53.0526","MEAN_MOTION_DDOT":"0.0000000000000","MEAN_ANOMALY":"275.3959","GP_ID":"201230306","CENTER_NAME":"EARTH","RCS_SIZE":"LARGE","MEAN_MOTION_DOT":"0.00005099","REF_FRAME":"TEME","FILE":"3401718","SITE":"AFETR","ARG_OF_PERICENTER":"84.7198","TLE_LINE2":"2 45700  53.0526 312.9954 0001473  84.7198 275.3959 15.06415809103984","LAUNCH_DATE":"2020-06-04"},{"MEAN_ANOMALY":"303.7212","INCLINATION":"53.0553","NORAD_CAT_ID":"45701","MEAN_MOTION_DDOT":"0.0000000000000","MEAN_MOTION":"15.06419147","OBJECT_NAME":"STARLINK-1403","RA_OF_ASC_NODE":"312.8541","OBJECT_ID":"2020-035AW","LAUNCH_DATE":"2020-06-04","FILE":"3401718","TLE_LINE2":"2 45701  53.0553 312.8541 0001849  56.3953 303.7212 15.06419147103995","ARG_OF_PERICENTER":"56.3953","SITE":"AFETR","MEAN_MOTION_DOT":"0.00006116","REF_FRAME":"TEME","CENTER_NAME":"EARTH","GP_ID":"201230806","RCS_SIZE":"LARGE","DECAY_DATE":null,"PERIAPSIS":"545.874","REV_AT_EPOCH":"10399","COUNTRY_CODE":"US","BSTAR":"0.00042892000000","TLE_LINE1":"1 45701U 20035AW  22104.87470501  .00006116  00000-0  42892-3 0  9990","ECCENTRICITY":"0.00018490","ELEMENT_SET_NO":"999","TIME_SYSTEM":"UTC","PERIOD":"95.591","EPHEMERIS_TYPE":"0","CLASSIFICATION_TYPE":"U","SEMIMAJOR_AXIS":"6925.290","APOAPSIS":"548.435","MEAN_ELEMENT_THEORY":"SGP4","EPOCH":"2022-04-14T20:59:34.512864","OBJECT_TYPE":"PAYLOAD"}];
